[{"OBJECT_NAME":"LILIUM-3","OBJECT_ID":"2025-276DJ","EPOCH":"2026-03-09T16:54:54.141120","MEAN_MOTION":15.18939749,"ECCENTRICITY":0.00011225,"INCLINATION":97.4313,"RA_OF_ASC_NODE":144.1145,"ARG_OF_PERICENTER":186.7966,"MEAN_ANOMALY":173.3253,"EPHEMERIS_TYPE":0,"CLASSIFICATION_TYPE":"U","NORAD_CAT_ID":66770,"ELEMENT_SET_NO":999,"REV_AT_EPOCH":1532,"BSTAR":0.00016352677,"MEAN_MOTION_DOT":3.348e-5,"MEAN_MOTION_DDOT":0},{"OBJECT_NAME":"CZ-4C DEB","OBJECT_ID":"2018-031H","EPOCH":"2026-03-09T10:10:58.582560","MEAN_MOTION":15.14033759,"ECCENTRICITY":0.00199639,"INCLINATION":98.1663,"RA_OF_ASC_NODE":242.9335,"ARG_OF_PERICENTER":272.748,"MEAN_ANOMALY":87.1465,"EPHEMERIS_TYPE":0,"CLASSIFICATION_TYPE":"U","NORAD_CAT_ID":43266,"ELEMENT_SET_NO":999,"REV_AT_EPOCH":43166,"BSTAR":0.00079064643,"MEAN_MOTION_DOT":0.00014379,"MEAN_MOTION_DDOT":0}]
